NORAD_CAT_ID,OBJECT_NAME,OBJECT_TYPE,EPOCH,MEAN_MOTION,ECCENTRICITY,INCLINATION,RA_OF_ASC_NODE,ARG_OF_PERICENTER,MEAN_ANOMALY,BSTAR,MEAN_MOTION_DOT,MEAN_MOTION_DDOT,TLE_LINE0,TLE_LINE1,TLE_LINE2,SEMIMAJOR_AXIS,PERIOD,APOGEE,PERIGEE,DECAYED
49413.0,STARLINK-3157,PAYLOAD,2022-12-14 02:51:00,15.08844717,0.0003198,53.2171,123.4023,55.365,304.7643,-3.4915e-06,-3.44e-06,0.0,0 STARLINK-3157,1 49413U 21104F   22348.11875213 -.00000344  00000-0 -34915-5 0  9996,2 49413  53.2171 123.4023 0003198  55.3650 304.7643 15.08844717 61483,6917.866,95.437,541.943,537.519,0.0
49413.0,STARLINK-3157,PAYLOAD,2022-12-14 17:09:28,15.08842625,0.0003083,53.2166,120.7283,46.105,314.0196,8.4569e-05,1.058e-05,0.0,0 STARLINK-3157,1 49413U 21104F   22348.71491008  .00001058  00000-0  84569-4 0  9998,2 49413  53.2166 120.7283 0003083  46.1050 314.0196 15.08842625 60482,6917.871999999999,95.437,541.87,537.605,0.0
49413.0,STARLINK-3157,PAYLOAD,2022-12-15 13:49:29,15.08841011,0.0003285,53.2164,116.8625,49.2568,310.8709,1.1775e-05,-1.01e-06,0.0,0 STARLINK-3157,1 49413U 21104F   22349.57603388 -.00000101  00000-0  11775-4 0  9997,2 49413  53.2164 116.8625 0003285  49.2568 310.8709 15.08841011 61706,6917.877,95.437,542.015,537.47,0.0
49413.0,STARLINK-3157,PAYLOAD,2022-12-15 18:35:38,15.08834908,0.000328,53.2155,115.97,51.3235,308.805,3.6967e-05,3e-06,0.0,0 STARLINK-3157,1 49413U 21104F   22349.77475684  .00000300  00000-0  36967-4 0  9995,2 49413  53.2155 115.9700 0003280  51.3235 308.8050 15.08834908 60645,6917.896,95.438,542.03,537.492,0.0
49413.0,STARLINK-3157,PAYLOAD,2022-12-16 13:40:16,15.08838481,0.0002896,53.217,112.4007,49.3573,310.7671,3.4044e-05,2.53e-06,0.0,0 STARLINK-3157,1 49413U 21104F   22350.56963487  .00000253  00000-0  34044-4 0  9998,2 49413  53.2170 112.4007 0002896  49.3573 310.7671 15.08838481 60762,6917.885,95.438,541.753,537.747,0.0
49413.0,STARLINK-3157,PAYLOAD,2022-12-16 18:26:26,15.0883331,0.0003015,53.2169,111.5087,50.2356,309.8901,4.4268e-05,4.16e-06,0.0,0 STARLINK-3157,1 49413U 21104F   22350.76835843  .00000416  00000-0  44268-4 0  9994,2 49413  53.2169 111.5087 0003015  50.2356 309.8901 15.08833310 61887,6917.901,95.438,541.852,537.68,0.0
49413.0,STARLINK-3157,PAYLOAD,2022-12-17 11:55:41,15.08832816,0.0003044,53.2171,108.2382,51.5369,308.5896,6.6746e-06,-1.82e-06,0.0,0 STARLINK-3157,1 49413U 21104F   22351.49700315 -.00000182  00000-0  66746-5 0  9997,2 49413  53.2171 108.2382 0003044  51.5369 308.5896 15.08832816 60902,6917.901999999999,95.438,541.873,537.6619999999998,0.0
49413.0,STARLINK-3157,PAYLOAD,2022-12-17 16:41:50,15.08835956,0.0003032,53.2171,107.3461,51.2108,308.9154,2.9068e-05,1.74e-06,0.0,0 STARLINK-3157,1 49413U 21104F   22351.69572106  .00000174  00000-0  29068-4 0  9999,2 49413  53.2171 107.3461 0003032  51.2108 308.9154 15.08835956 60937,6917.893,95.438,541.855,537.66,0.0
49413.0,STARLINK-3157,PAYLOAD,2022-12-18 00:38:46,15.0883348,0.0003063,53.2172,105.8593,51.3213,308.8053,-1.3169e-05,-4.98e-06,0.0,0 STARLINK-3157,1 49413U 21104F   22352.02692510 -.00000498  00000-0 -13169-4 0  9995,2 49413  53.2172 105.8593 0003063  51.3213 308.8053 15.08833480 62073,6917.9,95.438,541.884,537.646,0.0
49413.0,STARLINK-3157,PAYLOAD,2022-12-18 11:46:28,15.08835886,0.0003042,53.2173,103.777,47.0031,313.1216,2.358e-05,8.7e-07,0.0,0 STARLINK-3157,1 49413U 21104F   22352.49060513  .00000087  00000-0  23580-4 0  9998,2 49413  53.2173 103.7770 0003042  47.0031 313.1216 15.08835886 61054,6917.893,95.438,541.862,537.654,0.0
49413.0,STARLINK-3157,PAYLOAD,2022-12-18 16:32:38,15.08829382,0.0002992,53.2177,102.8842,45.6147,314.5089,-5.057e-05,-1.093e-05,0.0,0 STARLINK-3157,1 49413U 21104F   22352.68933210 -.00001093  00000-0 -50570-4 0  9991,2 49413  53.2177 102.8842 0002992  45.6147 314.5089 15.08829382 62174,6917.913000000001,95.438,541.8480000000002,537.7080000000002,0.0
49413.0,STARLINK-3157,PAYLOAD,2022-12-19 00:29:33,15.08829988,0.0003056,53.2185,101.3972,47.1376,312.9873,5.558600000000001e-05,5.96e-06,0.0,0 STARLINK-3157,1 49413U 21104F   22353.02053079  .00000596  00000-0  55586-4 0  9993,2 49413  53.2185 101.3972 0003056  47.1376 312.9873 15.08829988 61134,6917.911,95.438,541.89,537.6619999999998,0.0
49413.0,STARLINK-3157,PAYLOAD,2022-12-19 14:48:01,15.08842982,0.0002796,53.2174,98.7215,44.7163,315.4054,0.00011332,1.516e-05,0.0,0 STARLINK-3157,1 49413U 21104F   22353.61668172  .00001516  00000-0  11332-3 0  9997,2 49413  53.2174  98.7215 0002796  44.7163 315.4054 15.08842982 61226,6917.871,95.437,541.6709999999998,537.802,0.0
49413.0,STARLINK-3157,PAYLOAD,2022-12-20 13:03:24,15.08853896,0.0002904,53.2179,94.5578,44.8053,315.3173,0.00022,3.216e-05,0.0,0 STARLINK-3157,1 49413U 21104F   22354.54402932  .00003216  00000-0  22000-3 0  9993,2 49413  53.2179  94.5578 0002904  44.8053 315.3173 15.08853896 61369,6917.8380000000025,95.437,541.712,537.694,0.0
49413.0,STARLINK-3157,PAYLOAD,2022-12-20 14:38:47,15.08848163,0.0002841,53.2167,94.2616,40.0089,320.1112,0.00023429,3.443e-05,0.0,0 STARLINK-3157,1 49413U 21104F   22354.61027165  .00003443  00000-0  23429-3 0  9990,2 49413  53.2167  94.2616 0002841  40.0089 320.1112 15.08848163 62463,6917.855,95.437,541.686,537.755,0.0
49413.0,STARLINK-3157,PAYLOAD,2022-12-21 12:54:12,15.08839303,0.0002665,53.2176,90.0987,41.678,318.4415,-1.0539e-05,-4.56e-06,0.0,0 STARLINK-3157,1 49413U 21104F   22355.53764380 -.00000456  00000-0 -10539-4 0  9991,2 49413  53.2176  90.0987 0002665  41.6780 318.4415 15.08839303 62605,6917.8830000000025,95.438,541.591,537.904,0.0
49413.0,STARLINK-3157,PAYLOAD,2022-12-22 00:01:55,15.08831111,0.000273,53.2166,88.0174,42.0491,318.071,-0.00011593,-2.133e-05,0.0,0 STARLINK-3157,1 49413U 21104F   22356.00133287 -.00002133  00000-0 -11593-3 0  9994,2 49413  53.2166  88.0174 0002730  42.0491 318.0710 15.08831111 62676,6917.908,95.438,541.661,537.884,0.0
49413.0,STARLINK-3157,PAYLOAD,2022-12-22 12:44:59,15.08847968,0.0002707,53.2171,85.6373,40.1696,319.9495,-2.7702e-05,-7.299999999999999e-06,0.0,0 STARLINK-3157,1 49413U 21104F   22356.53123855 -.00000730  00000-0 -27702-4 0  9993,2 49413  53.2171  85.6373 0002707  40.1696 319.9495 15.08847968 62752,6917.856,95.437,541.594,537.8480000000002,0.0
49413.0,STARLINK-3157,PAYLOAD,2022-12-22 15:55:45,15.08844969,0.0002751,53.2171,85.0435,38.7391,321.3798,1.9589e-05,2.3e-07,0.0,0 STARLINK-3157,1 49413U 21104F   22356.66371914  .00000023  00000-0  19589-4 0  9995,2 49413  53.2171  85.0435 0002751  38.7391 321.3798 15.08844969 61681,6917.865,95.437,541.633,537.827,0.0
49413.0,STARLINK-3157,PAYLOAD,2022-12-23 14:11:10,15.08827915,0.0002671,53.2171,80.8804,37.0136,323.1040000000001,0.00011671,1.569e-05,0.0,0 STARLINK-3157,1 49413U 21104F   22357.59109424  .00001569  00000-0  11671-3 0  9992,2 49413  53.2171  80.8804 0002671  37.0136 323.1040 15.08827915 62913,6917.917,95.438,541.63,537.935,0.0
49413.0,STARLINK-3157,PAYLOAD,2022-12-23 15:46:33,15.08828449,0.0002663,53.217,80.5827,37.4797,322.6381,0.00012363,1.679e-05,0.0,0 STARLINK-3157,1 49413U 21104F   22357.65733413  .00001679  00000-0  12363-3 0  9991,2 49413  53.2170  80.5827 0002663  37.4797 322.6381 15.08828449 61837,6917.916,95.438,541.623,537.938,0.0
49413.0,STARLINK-3157,PAYLOAD,2022-12-23 22:08:05,15.08838842,0.0002671,53.2172,79.3937,36.1961,323.9212,0.00019769,2.859e-05,0.0,0 STARLINK-3157,1 49413U 21104F   22357.92228764  .00002859  00000-0  19769-3 0  9997,2 49413  53.2172  79.3937 0002671  36.1961 323.9212 15.08838842 62965,6917.884,95.438,541.597,537.901,0.0
49413.0,STARLINK-3157,PAYLOAD,2022-12-24 12:26:33,15.08844352,0.0002648,53.2181,76.7171,36.0734,324.0437,0.00014649,2.044e-05,0.0,0 STARLINK-3157,1 49413U 21104F   22358.51844589  .00002044  00000-0  14649-3 0  9990,2 49413  53.2181  76.7171 0002648  36.0734 324.0437 15.08844352 61960,6917.8669999999975,95.437,541.564,537.9,0.0
49413.0,STARLINK-3157,PAYLOAD,2022-12-24 21:58:53,15.08836698,0.0002705,53.2177,74.9333,33.7108,326.4056,-2.6038e-05,-7.03e-06,0.0,0 STARLINK-3157,1 49413U 21104F   22358.91589502 -.00000703  00000-0 -26038-4 0  9993,2 49413  53.2177  74.9333 0002705  33.7108 326.4056 15.08836698 62023,6917.89,95.438,541.627,537.884,0.0
49413.0,STARLINK-3157,PAYLOAD,2022-12-25 04:20:25,15.08835472,0.0002469,53.218,73.7446,27.3755,332.7367,0.00011512,1.544e-05,0.0,0 STARLINK-3157,1 49413U 21104F   22359.18085237  .00001544  00000-0  11512-3 0  9991,2 49413  53.2180  73.7446 0002469  27.3755 332.7367 15.08835472 63152,6917.894,95.438,541.467,538.0509999999998,0.0
49413.0,STARLINK-3157,PAYLOAD,2022-12-25 12:17:21,15.08830545,0.0002563,53.2187,72.2573,28.0304,332.0826,4.7947e-05,4.75e-06,0.0,0 STARLINK-3157,1 49413U 21104F   22359.51205856  .00000475  00000-0  47947-4 0  9993,2 49413  53.2187  72.2573 0002563  28.0304 332.0826 15.08830545 62111,6917.909000000002,95.438,541.547,538.001,0.0
49413.0,STARLINK-3157,PAYLOAD,2022-12-25 21:49:40,15.08836673,0.0002744,53.2189,70.4725,30.6297,329.4855,3.8598e-05,3.26e-06,0.0,0 STARLINK-3157,1 49413U 21104F   22359.90949561  .00000326  00000-0  38598-4 0  9991,2 49413  53.2189  70.4725 0002744  30.6297 329.4855 15.08836673 63260,6917.891,95.438,541.654,537.857,0.0
49413.0,STARLINK-3157,PAYLOAD,2022-12-26 05:46:36,15.08832021,0.0002763,53.2187,68.9854,27.7366,332.3773,-5.868e-05,-1.222e-05,0.0,0 STARLINK-3157,1 49413U 21104F   22360.24070225 -.00001222  00000-0 -58680-4 0  9994,2 49413  53.2187  68.9854 0002763  27.7366 332.3773 15.08832021 63319,6917.905,95.438,541.681,537.8580000000002,0.0
49413.0,STARLINK-3157,PAYLOAD,2022-12-26 08:57:22,15.08835623,0.0002674,53.2205,68.3922,33.3654,326.7506,-2.7882e-05,-7.32e-06,0.0,0 STARLINK-3157,1 49413U 21104F   22360.37317997 -.00000732  00000-0 -27882-4 0  9993,2 49413  53.2205  68.3922 0002674  33.3654 326.7506 15.08835623 62247,6917.894,95.438,541.609,537.909,0.0
